GLOBALSTAR M094         
1 39074U 13005C   24141.74081868 -.00000093  00000+0  61642-4 0  9991
2 39074  51.9965 297.0007 0001025 115.5276 244.5696 12.62266109522831
GLOBALSTAR M096         
1 39075U 13005D   24140.96210089 -.00000071  00000+0  18157-3 0  9992
2 39075  52.0093 347.5790 0001194  96.0260 264.0743 12.62265866521635
GLOBALSTAR M078         
1 39076U 13005E   24141.80720506 -.00000040  00000+0  35422-3 0  9997
2 39076  51.9884  70.0508 0001492  44.7353 315.3634 12.62275188520570
GLOBALSTAR M095         
1 39077U 13005F   24141.83284051 -.00000102  00000+0  10486-4 0  9994
2 39077  51.9812  67.3590 0001262  65.0627 295.0371 12.62266278520580
GLOBALSTAR M087         
1 52888U 22064A   24141.83496785 -.00000069  00000+0  11313-3 0  9994
2 52888  51.9763 303.7573 0008608 296.2895  63.7121 13.37574408 93863
